ONEWEB-0094             
1 45450U 20020AC  24312.75027638  .00000053  00000+0  10382-3 0  9996
2 45450  87.9071 122.6625 0001550  93.1536 266.9773 13.17652969229084
ONEWEB-0087             
1 45451U 20020AD  24313.07206913 -.00000176  00000+0 -53165-3 0  9992
2 45451  87.8878 137.7948 0001743  91.0961 269.0367 13.11415220225773
ONEWEB-0082             
1 45452U 20020AE  24313.06881377 -.00000071  00000+0 -23513-3 0  9993
2 45452  87.8883 137.8059 0001621  82.2347 277.8965 13.11414202225869
ONEWEB-0050             
1 45453U 20020AF  24313.05252009  .00010570  00000+0  10363-2 0  9998
2 45453  88.0042 351.6901 0000634  44.3403 315.7877 14.92157484253059
ONEWEB-0034             
1 45454U 20020AG  24313.01455133 -.00000443  00000+0 -12866-2 0  9998
2 45454  87.8890 137.8356 0001550  85.5631 274.5674 13.11418714225775
ONEWEB-0060             
1 45455U 20020AH  24313.05709363  .00000433  00000+0  11855-2 0  9994
2 45455  87.8890 137.8477 0001392  91.9646 268.1642 13.11416199225736
ONEWEB-0086             
1 45456U 20020AJ  24313.03999862  .00000401  00000+0  10943-2 0  9990
2 45456  87.8888 137.8312 0001916  89.9511 270.1836 13.11419167225783
ONEWEB-0088             
1 45457U 20020AK  24312.94165356 -.00000339  00000+0 -99170-3 0  9995
2 45457  87.8885 137.8099 0001604  89.7500 270.3812 13.11417954225703
